STARLINK-30246          
1 57615U 23119P   25125.86051115  .00000930  00000+0  83921-4 0  9990
2 57615  43.0038 313.9757 0001312 263.6766  96.3927 15.02538389 96760
STARLINK-30075          
1 57616U 23119Q   25125.92377942  .00000010  00000+0  15811-4 0  9999
2 57616  43.0095 314.4683 0001667 272.2931  87.7721 15.02527338 96770
STARLINK-30148          
1 57617U 23119R   25125.78749357  .00002809  00000+0  22292-3 0  9995
2 57617  43.0020 315.1640 0001060 267.3401  92.7320 15.02540227 96766
STARLINK-30249          
1 57618U 23119S   25125.91711867  .00001982  00000+0  16172-3 0  9997
2 57618  43.0034 314.4161 0001317 275.5005  84.5687 15.02538802 96725
STARLINK-30141          
1 57620U 23119U   25125.50604196  .00000888  00000+0  80769-4 0  9999
2 57620  43.0034 316.4854 0001161 271.9195  88.1515 15.02536399 96725
STARLINK-30150          
1 57621U 23119V   25125.50826398  .00000623  00000+0  61210-4 0  9997
2 57621  43.0038 316.5084 0001154 274.2942  85.7768 15.02534570 96715
STARLINK-30056          
1 57622U 23119W   25125.97026995  .00001328  00000+0  11338-3 0  9992
2 57622  43.0036 313.9275 0001254 277.8666  82.2034 15.02539891 96786
STARLINK-30100          
1 57623U 23119X   25125.83398215 -.00002835  00000+0 -19467-3 0  9992
2 57623  43.0050 314.6535 0001489 266.0333  94.0339 15.02568069 96778
STARLINK-30309          
1 57632U 23122A   25125.80715822 -.00000825  00000+0 -46044-4 0  9999
2 57632  43.0043 327.9848 0000894 277.1396  82.9344 15.02511486 95867
STARLINK-30306          
1 57633U 23122B   25125.93679850  .00000685  00000+0  65764-4 0  9996
2 57633  43.0041 327.2337 0001304 266.8673  93.2020 15.02533908 95883
STARLINK-30323          
1 57634U 23122C   25126.19732643 -.00004785  00000+0 -33923-3 0  9994
2 57634  43.0038 312.1634 0001048 272.2717  87.8006 15.02555859 96061
STARLINK-30329          
1 57635U 23122D   25125.86698345  .00001827  00000+0  15026-3 0  9994
2 57635  43.0048 327.5694 0001575 273.1439  86.9223 15.02540023 95871
STARLINK-30330          
1 57636U 23122E   25125.86364705 -.00000581  00000+0 -27922-4 0  9992
2 57636  43.0049 327.5468 0001744 299.8561  60.2108 15.02556197 95877
STARLINK-30311          
1 57637U 23122F   25125.85700019  .00001215  00000+0  10499-3 0  9997
2 57637  43.0054 327.4990 0001535 265.8155  94.2512 15.02534051 95874
