[
  {
    "OBJECT_NAME": "STARLINK-30246",
    "OBJECT_ID": "2023-119P",
    "EPOCH": "2025-05-05T20:39:08.163360",
    "MEAN_MOTION": 15.02538389,
    "ECCENTRICITY": 0.0001312,
    "INCLINATION": 43.0038,
    "RA_OF_ASC_NODE": 313.9757,
    "ARG_OF_PERICENTER": 263.6766,
    "MEAN_ANOMALY": 96.3927,
    "EPHEMERIS_TYPE": 0,
    "CLASSIFICATION_TYPE": "U",
    "NORAD_CAT_ID": 57615,
    "ELEMENT_SET_NO": 999,
    "REV_AT_EPOCH": 9676,
    "BSTAR": 8.3921e-05,
    "MEAN_MOTION_DOT": 9.3e-06,
    "MEAN_MOTION_DDOT": 0
  },
  {
    "OBJECT_NAME": "STARLINK-30075",
    "OBJECT_ID": "2023-119Q",
    "EPOCH": "2025-05-05T22:10:14.541888",
    "MEAN_MOTION": 15.02527338,
    "ECCENTRICITY": 0.0001667,
    "INCLINATION": 43.0095,
    "RA_OF_ASC_NODE": 314.4683,
    "ARG_OF_PERICENTER": 272.2931,
    "MEAN_ANOMALY": 87.7721,
    "EPHEMERIS_TYPE": 0,
    "CLASSIFICATION_TYPE": "U",
    "NORAD_CAT_ID": 57616,
    "ELEMENT_SET_NO": 999,
    "REV_AT_EPOCH": 9677,
    "BSTAR": 1.5811e-05,
    "MEAN_MOTION_DOT": 1e-07,
    "MEAN_MOTION_DDOT": 0
  },
  {
    "OBJECT_NAME": "STARLINK-30148",
    "OBJECT_ID": "2023-119R",
    "EPOCH": "2025-05-05T18:53:59.444448",
    "MEAN_MOTION": 15.02540227,
    "ECCENTRICITY": 0.000106,
    "INCLINATION": 43.002,
    "RA_OF_ASC_NODE": 315.164,
    "ARG_OF_PERICENTER": 267.3401,
    "MEAN_ANOMALY": 92.732,
    "EPHEMERIS_TYPE": 0,
    "CLASSIFICATION_TYPE": "U",
    "NORAD_CAT_ID": 57617,
    "ELEMENT_SET_NO": 999,
    "REV_AT_EPOCH": 9676,
    "BSTAR": 0.00022292,
    "MEAN_MOTION_DOT": 2.809e-05,
    "MEAN_MOTION_DDOT": 0
  },
  {
    "OBJECT_NAME": "STARLINK-30249",
    "OBJECT_ID": "2023-119S",
    "EPOCH": "2025-05-05T22:00:39.053088",
    "MEAN_MOTION": 15.02538802,
    "ECCENTRICITY": 0.0001317,
    "INCLINATION": 43.0034,
    "RA_OF_ASC_NODE": 314.4161,
    "ARG_OF_PERICENTER": 275.5005,
    "MEAN_ANOMALY": 84.5687,
    "EPHEMERIS_TYPE": 0,
    "CLASSIFICATION_TYPE": "U",
    "NORAD_CAT_ID": 57618,
    "ELEMENT_SET_NO": 999,
    "REV_AT_EPOCH": 9672,
    "BSTAR": 0.00016172,
    "MEAN_MOTION_DOT": 1.982e-05,
    "MEAN_MOTION_DDOT": 0
  },
  {
    "OBJECT_NAME": "STARLINK-30141",
    "OBJECT_ID": "2023-119U",
    "EPOCH": "2025-05-05T12:08:42.025344",
    "MEAN_MOTION": 15.02536399,
    "ECCENTRICITY": 0.0001161,
    "INCLINATION": 43.0034,
    "RA_OF_ASC_NODE": 316.4854,
    "ARG_OF_PERICENTER": 271.9195,
    "MEAN_ANOMALY": 88.1515,
    "EPHEMERIS_TYPE": 0,
    "CLASSIFICATION_TYPE": "U",
    "NORAD_CAT_ID": 57620,
    "ELEMENT_SET_NO": 999,
    "REV_AT_EPOCH": 9672,
    "BSTAR": 8.0769e-05,
    "MEAN_MOTION_DOT": 8.88e-06,
    "MEAN_MOTION_DDOT": 0
  },
  {
    "OBJECT_NAME": "STARLINK-30150",
    "OBJECT_ID": "2023-119V",
    "EPOCH": "2025-05-05T12:11:54.007872",
    "MEAN_MOTION": 15.0253457,
    "ECCENTRICITY": 0.0001154,
    "INCLINATION": 43.0038,
    "RA_OF_ASC_NODE": 316.5084,
    "ARG_OF_PERICENTER": 274.2942,
    "MEAN_ANOMALY": 85.7768,
    "EPHEMERIS_TYPE": 0,
    "CLASSIFICATION_TYPE": "U",
    "NORAD_CAT_ID": 57621,
    "ELEMENT_SET_NO": 999,
    "REV_AT_EPOCH": 9671,
    "BSTAR": 6.121e-05,
    "MEAN_MOTION_DOT": 6.23e-06,
    "MEAN_MOTION_DDOT": 0
  },
  {
    "OBJECT_NAME": "STARLINK-30056",
    "OBJECT_ID": "2023-119W",
    "EPOCH": "2025-05-05T23:17:11.323680",
    "MEAN_MOTION": 15.02539891,
    "ECCENTRICITY": 0.0001254,
    "INCLINATION": 43.0036,
    "RA_OF_ASC_NODE": 313.9275,
    "ARG_OF_PERICENTER": 277.8666,
    "MEAN_ANOMALY": 82.2034,
    "EPHEMERIS_TYPE": 0,
    "CLASSIFICATION_TYPE": "U",
    "NORAD_CAT_ID": 57622,
    "ELEMENT_SET_NO": 999,
    "REV_AT_EPOCH": 9678,
    "BSTAR": 0.00011338,
    "MEAN_MOTION_DOT": 1.328e-05,
    "MEAN_MOTION_DDOT": 0
  },
  {
    "OBJECT_NAME": "STARLINK-30100",
    "OBJECT_ID": "2023-119X",
    "EPOCH": "2025-05-05T20:00:56.057760",
    "MEAN_MOTION": 15.02568069,
    "ECCENTRICITY": 0.0001489,
    "INCLINATION": 43.005,
    "RA_OF_ASC_NODE": 314.6535,
    "ARG_OF_PERICENTER": 266.0333,
    "MEAN_ANOMALY": 94.0339,
    "EPHEMERIS_TYPE": 0,
    "CLASSIFICATION_TYPE": "U",
    "NORAD_CAT_ID": 57623,
    "ELEMENT_SET_NO": 999,
    "REV_AT_EPOCH": 9677,
    "BSTAR": -0.00019467,
    "MEAN_MOTION_DOT": -2.835e-05,
    "MEAN_MOTION_DDOT": 0
  },
  {
    "OBJECT_NAME": "STARLINK-30309",
    "OBJECT_ID": "2023-122A",
    "EPOCH": "2025-05-05T19:22:18.470208",
    "MEAN_MOTION": 15.02511486,
    "ECCENTRICITY": 8.94e-05,
    "INCLINATION": 43.0043,
    "RA_OF_ASC_NODE": 327.9848,
    "ARG_OF_PERICENTER": 277.1396,
    "MEAN_ANOMALY": 82.9344,
    "EPHEMERIS_TYPE": 0,
    "CLASSIFICATION_TYPE": "U",
    "NORAD_CAT_ID": 57632,
    "ELEMENT_SET_NO": 999,
    "REV_AT_EPOCH": 9586,
    "BSTAR": -4.6044e-05,
    "MEAN_MOTION_DOT": -8.25e-06,
    "MEAN_MOTION_DDOT": 0
  },
  {
    "OBJECT_NAME": "STARLINK-30306",
    "OBJECT_ID": "2023-122B",
    "EPOCH": "2025-05-05T22:28:59.390400",
    "MEAN_MOTION": 15.02533908,
    "ECCENTRICITY": 0.0001304,
    "INCLINATION": 43.0041,
    "RA_OF_ASC_NODE": 327.2337,
    "ARG_OF_PERICENTER": 266.8673,
    "MEAN_ANOMALY": 93.202,
    "EPHEMERIS_TYPE": 0,
    "CLASSIFICATION_TYPE": "U",
    "NORAD_CAT_ID": 57633,
    "ELEMENT_SET_NO": 999,
    "REV_AT_EPOCH": 9588,
    "BSTAR": 6.5764e-05,
    "MEAN_MOTION_DOT": 6.85e-06,
    "MEAN_MOTION_DDOT": 0
  },
  {
    "OBJECT_NAME": "STARLINK-30323",
    "OBJECT_ID": "2023-122C",
    "EPOCH": "2025-05-06T04:44:09.003552",
    "MEAN_MOTION": 15.02555859,
    "ECCENTRICITY": 0.0001048,
    "INCLINATION": 43.0038,
    "RA_OF_ASC_NODE": 312.1634,
    "ARG_OF_PERICENTER": 272.2717,
    "MEAN_ANOMALY": 87.8006,
    "EPHEMERIS_TYPE": 0,
    "CLASSIFICATION_TYPE": "U",
    "NORAD_CAT_ID": 57634,
    "ELEMENT_SET_NO": 999,
    "REV_AT_EPOCH": 9606,
    "BSTAR": -0.00033923,
    "MEAN_MOTION_DOT": -4.785e-05,
    "MEAN_MOTION_DDOT": 0
  },
  {
    "OBJECT_NAME": "STARLINK-30329",
    "OBJECT_ID": "2023-122D",
    "EPOCH": "2025-05-05T20:48:27.370080",
    "MEAN_MOTION": 15.02540023,
    "ECCENTRICITY": 0.0001575,
    "INCLINATION": 43.0048,
    "RA_OF_ASC_NODE": 327.5694,
    "ARG_OF_PERICENTER": 273.1439,
    "MEAN_ANOMALY": 86.9223,
    "EPHEMERIS_TYPE": 0,
    "CLASSIFICATION_TYPE": "U",
    "NORAD_CAT_ID": 57635,
    "ELEMENT_SET_NO": 999,
    "REV_AT_EPOCH": 9587,
    "BSTAR": 0.00015026,
    "MEAN_MOTION_DOT": 1.827e-05,
    "MEAN_MOTION_DDOT": 0
  },
  {
    "OBJECT_NAME": "STARLINK-30330",
    "OBJECT_ID": "2023-122E",
    "EPOCH": "2025-05-05T20:43:39.105120",
    "MEAN_MOTION": 15.02556197,
    "ECCENTRICITY": 0.0001744,
    "INCLINATION": 43.0049,
    "RA_OF_ASC_NODE": 327.5468,
    "ARG_OF_PERICENTER": 299.8561,
    "MEAN_ANOMALY": 60.2108,
    "EPHEMERIS_TYPE": 0,
    "CLASSIFICATION_TYPE": "U",
    "NORAD_CAT_ID": 57636,
    "ELEMENT_SET_NO": 999,
    "REV_AT_EPOCH": 9587,
    "BSTAR": -2.7922e-05,
    "MEAN_MOTION_DOT": -5.81e-06,
    "MEAN_MOTION_DDOT": 0
  },
  {
    "OBJECT_NAME": "STARLINK-30311",
    "OBJECT_ID": "2023-122F",
    "EPOCH": "2025-05-05T20:34:04.816416",
    "MEAN_MOTION": 15.02534051,
    "ECCENTRICITY": 0.0001535,
    "INCLINATION": 43.0054,
    "RA_OF_ASC_NODE": 327.499,
    "ARG_OF_PERICENTER": 265.8155,
    "MEAN_ANOMALY": 94.2512,
    "EPHEMERIS_TYPE": 0,
    "CLASSIFICATION_TYPE": "U",
    "NORAD_CAT_ID": 57637,
    "ELEMENT_SET_NO": 999,
    "REV_AT_EPOCH": 9587,
    "BSTAR": 0.00010499,
    "MEAN_MOTION_DOT": 1.215e-05,
    "MEAN_MOTION_DDOT": 0
  }
]